[
    {
        "Altitude(m)": 607911.0209801968,
        "Argument of Periapsis(deg)": 0.0,
        "Eccentricity": 0.0,
        "Inclination(deg)": 60.0,
        "Latitude(deg)": -14.293011561214515,
        "Longitude(deg)": -41.5573300646829,
        "Mean Anomaly(deg)": -163.6364,
        "RAAN(deg)": 229.99999999999997,
        "Satellite Name": "Test1 1024",
        "Satellite Number": 1024,
        "Semi-Major Axis(m)": 6980739.136638005,
        "Time(s)": 0
    },
    {
        "Altitude(m)": 608060.2548983359,
        "Argument of Periapsis(deg)": 0.00010418945913296404,
        "Eccentricity": 0.0,
        "Inclination(deg)": 60.0,
        "Latitude(deg)": -14.826672510242707,
        "Longitude(deg)": -41.268719661353465,
        "Mean Anomaly(deg)": -163.01629385453822,
        "RAAN(deg)": 229.99957995086024,
        "Satellite Name": "Test1 1024",
        "Satellite Number": 1024,
        "Semi-Major Axis(m)": 6980739.136638005,
        "Time(s)": 10
    }
]